[{"OBJECT_NAME":"FIREFLY-3","OBJECT_ID":"2025-009DF","EPOCH":"2026-03-09T21:54:06.056640","MEAN_MOTION":14.92832807,"ECCENTRICITY":0.00061356,"INCLINATION":97.7107,"RA_OF_ASC_NODE":149.1214,"ARG_OF_PERICENTER":126.9978,"MEAN_ANOMALY":233.1804,"EPHEMERIS_TYPE":0,"CLASSIFICATION_TYPE":"U","NORAD_CAT_ID":62710,"ELEMENT_SET_NO":999,"REV_AT_EPOCH":6252,"BSTAR":0.00029016679,"MEAN_MOTION_DOT":2.949e-5,"MEAN_MOTION_DDOT":0},{"OBJECT_NAME":"ELISA E12","OBJECT_ID":"2011-076D","EPOCH":"2026-03-09T21:55:09.308352","MEAN_MOTION":14.92421769,"ECCENTRICITY":0.00021236,"INCLINATION":97.6519,"RA_OF_ASC_NODE":97.7616,"ARG_OF_PERICENTER":107.7768,"MEAN_ANOMALY":252.3684,"EPHEMERIS_TYPE":0,"CLASSIFICATION_TYPE":"U","NORAD_CAT_ID":38010,"ELEMENT_SET_NO":999,"REV_AT_EPOCH":76441,"BSTAR":0.00016008382,"MEAN_MOTION_DOT":1.585e-5,"MEAN_MOTION_DDOT":0}]
